{
  "norad_id": 68873,
  "name": "KUIPER-00468",
  "history": [
    {
      "epoch": "2026-05-02T10:00:03.000096Z",
      "apogee_km": 457.15321557178504,
      "perigee_km": 450.207989796897,
      "latitude_deg": 22.9884183482173,
      "longitude_deg": -105.98568929432773,
      "height_km": 451.5538672702116,
      "semi_major_axis_km": 6831.817602684341,
      "eccentricity": 0.0005083,
      "inclination_deg": 51.881,
      "raan_deg": 103.6928,
      "arg_perigee_deg": 112.388,
      "mean_anomaly_deg": 37.8958,
      "mean_motion_rev_day": 15.37440678
    }
  ]
}