{"fetched_at":"2026-05-03T06:27:58Z","count":17151,"tles":[{"name":"KUIPER-00468","line1":"1 68873U 26095K   26122.41670139  .00069633  00000+0  18602-2 0  9993","line2":"2 68873  51.8810 103.6928 0005083 112.3880  37.8958 15.37440678  1304","category":"Other"}]}